ORBCOMM FM115           
1 41186U 15081H   24223.62654663  .00002745  00000+0  58916-3 0  9995
2 41186  46.9982  75.1237 0000186 130.7712 229.3191 14.60989920462334
ORBCOMM FM108           
1 41187U 15081J   24223.18095175  .00003293  00000+0  76496-3 0  9996
2 41187  47.0038 134.4570 0002669 319.7681  40.3006 14.56829750461424
ORBCOMM FM117           
1 41188U 15081K   24223.14687452  .00003273  00000+0  76077-3 0  9991
2 41188  46.9999 133.4808 0003291 331.1764  28.8939 14.56816519461463
ORBCOMM FM116           
1 41189U 15081L   24223.34110372  .00001366  00000+0  33930-3 0  9998
2 41189  47.0004 222.3842 0001781  27.0375 333.0603 14.56811311460306
